{
    "links": {
        "self": "http://www.neowsapp.com/rest/v1/neo/3355869?api_key=iIulBulltgU6a56xZRHN4H3l9WmuAYTsLGpBGhQ2"
    },
    "id": "3355869",
    "neo_reference_id": "3355869",
    "name": "(2006 UP217)",
    "designation": "2006 UP217",
    "nasa_jpl_url": "http://ssd.jpl.nasa.gov/sbdb.cgi?sstr=3355869",
    "absolute_magnitude_h": 24.9,
    "estimated_diameter": {
        "kilometers": {
            "estimated_diameter_min": 0.0278326768,
            "estimated_diameter_max": 0.0622357573
        },
        "meters": {
            "estimated_diameter_min": 27.8326768072,
            "estimated_diameter_max": 62.2357573367
        },
        "miles": {
            "estimated_diameter_min": 0.0172944182,
            "estimated_diameter_max": 0.0386714948
        },
        "feet": {
            "estimated_diameter_min": 91.3145593761,
            "estimated_diameter_max": 204.1855621004
        }
    },
    "is_potentially_hazardous_asteroid": false,
    "close_approach_data": [
        {
            "close_approach_date": "2006-10-22",
            "close_approach_date_full": "2006-Oct-22 03:51",
            "epoch_date_close_approach": 1161489060000,
            "relative_velocity": {
                "kilometers_per_second": "15.2374431796",
                "kilometers_per_hour": "54854.7954464398",
                "miles_per_hour": "34084.6366483725"
            },
            "miss_distance": {
                "astronomical": "0.0165377733",
                "lunar": "6.4331938137",
                "kilometers": "2474015.660222871",
                "miles": "1537282.0465467798"
            },
            "orbiting_body": "Earth"
        }
    ],
    "orbital_data": {
        "orbit_id": "6",
        "orbit_determination_date": "2017-04-06 09:07:43",
        "first_observation_date": "2006-10-31",
        "last_observation_date": "2006-11-01",
        "data_arc_in_days": 1,
        "observations_used": 28,
        "orbit_uncertainty": "9",
        "minimum_orbit_intersection": ".0010863",
        "jupiter_tisserand_invariant": "5.142",
        "epoch_osculation": "2454040.5",
        "eccentricity": ".4937118842802246",
        "semi_major_axis": "1.208945827252423",
        "inclination": "1.535722552153813",
        "ascending_node_longitude": "206.9584712845233",
        "orbital_period": "485.5217476860482",
        "perihelion_distance": ".6120749048869145",
        "perihelion_argument": "82.87282546066261",
        "aphelion_distance": "1.805816749617932",
        "perihelion_time": "2453973.042092280661",
        "mean_anomaly": "50.01804119939298",
        "mean_motion": ".7414703908027327",
        "equinox": "J2000",
        "orbit_class": {
            "orbit_class_type": "APO",
            "orbit_class_description": "Near-Earth asteroid orbits which cross the Earth’s orbit similar to that of 1862 Apollo",
            "orbit_class_range": "a (semi-major axis) > 1.0 AU; q (perihelion) < 1.017 AU"
        }
    },
    "is_sentry_object": false
}